start=new Date('2023-04-30T00:00:00.000Z').valueOf();
sats=[{"RCS_SIZE":"LARGE","BSTAR":"0.00002134700000","TLE_LINE1":"1 56148U 23046BJ  23119.28105284  .00002347  00000-0  21347-4 0  9992","ARG_OF_PERICENTER":"244.5070","EPHEMERIS_TYPE":"0","OBJECT_ID":"2023-046BJ","RA_OF_ASC_NODE":"80.2950","MEAN_MOTION":"15.71349421","MEAN_MOTION_DDOT":"0.0000000000000","REV_AT_EPOCH":"479","NORAD_CAT_ID":"56148","INCLINATION":"42.9998","FILE":"3896517","OBJECT_TYPE":"PAYLOAD","MEAN_MOTION_DOT":"0.00002347","REF_FRAME":"TEME","GP_ID":"230933342","SEMIMAJOR_AXIS":"6733.176","MEAN_ANOMALY":"115.5627","CLASSIFICATION_TYPE":"U","CENTER_NAME":"EARTH","LAUNCH_DATE":"2023-03-29","TLE_LINE2":"2 56148  42.9998  80.2950 0001646 244.5070 115.5627 15.71349421  4794","TIME_SYSTEM":"UTC","OBJECT_NAME":"STARLINK-5089","APOAPSIS":"356.150","MEAN_ELEMENT_THEORY":"SGP4","PERIOD":"91.641","ECCENTRICITY":"0.00016460","SITE":"AFETR","PERIAPSIS":"353.933","ELEMENT_SET_NO":"999","COUNTRY_CODE":"US","EPOCH":"2023-04-29T06:44:42.965376","DECAY_DATE":null},{"ARG_OF_PERICENTER":"44.6913","OBJECT_ID":"2023-056A","EPHEMERIS_TYPE":"0","BSTAR":"0.00356580000000","RCS_SIZE":"LARGE","TLE_LINE1":"1 56286U 23056A   23119.51364793  .01044140  00000-0  35658-2 0  9990","SEMIMAJOR_AXIS":"6690.499","GP_ID":"230939483","REF_FRAME":"TEME","MEAN_MOTION_DOT":"0.01044140","OBJECT_TYPE":"PAYLOAD","FILE":"3896782","CLASSIFICATION_TYPE":"U","MEAN_ANOMALY":"315.4146","REV_AT_EPOCH":"283","MEAN_MOTION_DDOT":"0.0000000000000","RA_OF_ASC_NODE":"142.0850","MEAN_MOTION":"15.86408319","INCLINATION":"43.0008","NORAD_CAT_ID":"56286","SITE":"AFETR","ECCENTRICITY":"0.00023070","PERIOD":"90.771","PERIAPSIS":"310.821","LAUNCH_DATE":"2023-04-19","CENTER_NAME":"EARTH","MEAN_ELEMENT_THEORY":"SGP4","APOAPSIS":"313.908","OBJECT_NAME":"STARLINK-30096","TLE_LINE2":"2 56286  43.0008 142.0850 0002307  44.6913 315.4146 15.86408319  2835","TIME_SYSTEM":"UTC","EPOCH":"2023-04-29T12:19:39.181152","DECAY_DATE":null,"ELEMENT_SET_NO":"999","COUNTRY_CODE":"US"},{"COUNTRY_CODE":"US","ELEMENT_SET_NO":"999","DECAY_DATE":null,"EPOCH":"2023-04-29T14:00:01.999872","TLE_LINE2":"2 56287  43.0021 142.5757 0001693 279.7975 110.0405 15.60155150  1300","TIME_SYSTEM":"UTC","OBJECT_NAME":"STARLINK-30107","APOAPSIS":"388.356","MEAN_ELEMENT_THEORY":"SGP4","CENTER_NAME":"EARTH","LAUNCH_DATE":"2023-04-19","PERIAPSIS":"386.065","PERIOD":"92.299","ECCENTRICITY":"0.00016930","SITE":"AFETR","NORAD_CAT_ID":"56287","INCLINATION":"43.0021","MEAN_MOTION":"15.60155150","RA_OF_ASC_NODE":"142.5757","MEAN_MOTION_DDOT":"0.0000000000000","REV_AT_EPOCH":"130","MEAN_ANOMALY":"110.0405","CLASSIFICATION_TYPE":"U","FILE":"3896517","OBJECT_TYPE":"PAYLOAD","REF_FRAME":"TEME","MEAN_MOTION_DOT":"-0.01212425","GP_ID":"230933300","SEMIMAJOR_AXIS":"6765.346","TLE_LINE1":"1 56287U 23056B   23119.58335648 -.01212425  00000-0 -16163-1 0  9999","RCS_SIZE":null,"BSTAR":"-0.01616300000000","OBJECT_ID":"2023-056B","EPHEMERIS_TYPE":"0","ARG_OF_PERICENTER":"279.7975"},{"LAUNCH_DATE":"2023-04-19","CENTER_NAME":"EARTH","MEAN_ELEMENT_THEORY":"SGP4","APOAPSIS":"390.739","OBJECT_NAME":"STARLINK-30106","TLE_LINE2":"2 56288  43.0022 140.5958 0001363 272.5251 191.7994 15.59254022  2110","TIME_SYSTEM":"UTC","SITE":"AFETR","ECCENTRICITY":"0.00013630","PERIOD":"92.352","PERIAPSIS":"388.894","ELEMENT_SET_NO":"999","COUNTRY_CODE":"US","EPOCH":"2023-04-29T22:00:00.999936","DECAY_DATE":null,"BSTAR":"-0.01569400000000","RCS_SIZE":"LARGE","TLE_LINE1":"1 56288U 23056C   23119.91667824 -.01144156  00000-0 -15694-1 0  9994","ARG_OF_PERICENTER":"272.5251","OBJECT_ID":"2023-056C","EPHEMERIS_TYPE":"0","REV_AT_EPOCH":"211","MEAN_MOTION_DDOT":"0.0000000000000","MEAN_MOTION":"15.59254022","RA_OF_ASC_NODE":"140.5958","INCLINATION":"43.0022","NORAD_CAT_ID":"56288","SEMIMAJOR_AXIS":"6767.952","GP_ID":"230939500","MEAN_MOTION_DOT":"-0.01144156","REF_FRAME":"TEME","OBJECT_TYPE":"PAYLOAD","FILE":"3896783","CLASSIFICATION_TYPE":"U","MEAN_ANOMALY":"191.7994"},{"DECAY_DATE":null,"EPOCH":"2023-04-29T14:00:01.999872","COUNTRY_CODE":"US","ELEMENT_SET_NO":"999","PERIAPSIS":"342.581","PERIOD":"91.404","ECCENTRICITY":"0.00012370","SITE":"AFETR","TLE_LINE2":"2 56289  43.0019 142.1248 0001237 302.9760 268.8573 15.75429217  1307","TIME_SYSTEM":"UTC","APOAPSIS":"344.244","OBJECT_NAME":"STARLINK-30095","MEAN_ELEMENT_THEORY":"SGP4","CENTER_NAME":"EARTH","LAUNCH_DATE":"2023-04-19","MEAN_ANOMALY":"268.8573","CLASSIFICATION_TYPE":"U","OBJECT_TYPE":"PAYLOAD","FILE":"3896517","MEAN_MOTION_DOT":"0.00217225","REF_FRAME":"TEME","GP_ID":"230933256","SEMIMAJOR_AXIS":"6721.547","NORAD_CAT_ID":"56289","INCLINATION":"43.0019","RA_OF_ASC_NODE":"142.1248","MEAN_MOTION":"15.75429217","MEAN_MOTION_DDOT":"0.0000000000000","REV_AT_EPOCH":"130","OBJECT_ID":"2023-056D","EPHEMERIS_TYPE":"0","ARG_OF_PERICENTER":"302.9760","TLE_LINE1":"1 56289U 23056D   23119.58335648  .00217225  00000-0  13578-2 0  9999","RCS_SIZE":null,"BSTAR":"0.00135780000000"},{"EPHEMERIS_TYPE":"0","OBJECT_ID":"2023-056E","ARG_OF_PERICENTER":"271.6782","TLE_LINE1":"1 56290U 23056E   23119.91667824 -.01140361  00000-0 -15645-1 0  9997","RCS_SIZE":"LARGE","BSTAR":"-0.01564500000000","MEAN_ANOMALY":"192.3323","CLASSIFICATION_TYPE":"U","GP_ID":"230939519","SEMIMAJOR_AXIS":"6767.993","OBJECT_TYPE":"PAYLOAD","FILE":"3896784","REF_FRAME":"TEME","MEAN_MOTION_DOT":"-0.01140361","NORAD_CAT_ID":"56290","INCLINATION":"43.0024","MEAN_MOTION_DDOT":"0.0000000000000","REV_AT_EPOCH":"211","MEAN_MOTION":"15.59239741","RA_OF_ASC_NODE":"140.5966","PERIAPSIS":"388.931","SITE":"AFETR","PERIOD":"92.353","ECCENTRICITY":"0.00013700","MEAN_ELEMENT_THEORY":"SGP4","TLE_LINE2":"2 56290  43.0024 140.5966 0001370 271.6782 192.3323 15.59239741  2115","TIME_SYSTEM":"UTC","OBJECT_NAME":"STARLINK-30103","APOAPSIS":"390.785","LAUNCH_DATE":"2023-04-19","CENTER_NAME":"EARTH","DECAY_DATE":null,"EPOCH":"2023-04-29T22:00:00.999936","COUNTRY_CODE":"US","ELEMENT_SET_NO":"999"},{"MEAN_ANOMALY":"191.0029","CLASSIFICATION_TYPE":"U","GP_ID":"230939516","SEMIMAJOR_AXIS":"6767.921","OBJECT_TYPE":"PAYLOAD","FILE":"3896784","REF_FRAME":"TEME","MEAN_MOTION_DOT":"-0.01145094","NORAD_CAT_ID":"56291","INCLINATION":"43.0022","MEAN_MOTION_DDOT":"0.0000000000000","REV_AT_EPOCH":"210","RA_OF_ASC_NODE":"140.5950","MEAN_MOTION":"15.59264772","OBJECT_ID":"2023-056F","EPHEMERIS_TYPE":"0","ARG_OF_PERICENTER":"273.6372","TLE_LINE1":"1 56291U 23056F   23119.91667824 -.01145094  00000-0 -15702-1 0  9990","RCS_SIZE":"LARGE","BSTAR":"-0.01570200000000","DECAY_DATE":null,"EPOCH":"2023-04-29T22:00:00.999936","COUNTRY_CODE":"US","ELEMENT_SET_NO":"999","PERIAPSIS":"388.897","SITE":"AFETR","PERIOD":"92.351","ECCENTRICITY":"0.00013130","MEAN_ELEMENT_THEORY":"SGP4","TIME_SYSTEM":"UTC","TLE_LINE2":"2 56291  43.0022 140.5950 0001313 273.6372 191.0029 15.59264772  2101","APOAPSIS":"390.674","OBJECT_NAME":"STARLINK-30113","LAUNCH_DATE":"2023-04-19","CENTER_NAME":"EARTH"},{"ELEMENT_SET_NO":"999","COUNTRY_CODE":"US","EPOCH":"2023-04-29T22:00:00.999936","DECAY_DATE":null,"LAUNCH_DATE":"2023-04-19","CENTER_NAME":"EARTH","MEAN_ELEMENT_THEORY":"SGP4","APOAPSIS":"390.652","OBJECT_NAME":"STARLINK-30098","TLE_LINE2":"2 56292  43.0023 140.5926 0001378 265.7696 199.8352 15.59287572  2117","TIME_SYSTEM":"UTC","SITE":"AFETR","ECCENTRICITY":"0.00013780","PERIOD":"92.350","PERIAPSIS":"388.787","REV_AT_EPOCH":"211","MEAN_MOTION_DDOT":"0.0000000000000","MEAN_MOTION":"15.59287572","RA_OF_ASC_NODE":"140.5926","INCLINATION":"43.0023","NORAD_CAT_ID":"56292","SEMIMAJOR_AXIS":"6767.855","GP_ID":"230939510","REF_FRAME":"TEME","MEAN_MOTION_DOT":"-0.01140411","FILE":"3896784","OBJECT_TYPE":"PAYLOAD","CLASSIFICATION_TYPE":"U","MEAN_ANOMALY":"199.8352","BSTAR":"-0.01561700000000","RCS_SIZE":"LARGE","TLE_LINE1":"1 56292U 23056G   23119.91667824 -.01140411  00000-0 -15617-1 0  9994","ARG_OF_PERICENTER":"265.7696","OBJECT_ID":"2023-056G","EPHEMERIS_TYPE":"0"},{"BSTAR":"-0.01610600000000","RCS_SIZE":null,"TLE_LINE1":"1 56293U 23056H   23119.58335648 -.01210563  00000-0 -16106-1 0  9994","ARG_OF_PERICENTER":"281.8523","EPHEMERIS_TYPE":"0","OBJECT_ID":"2023-056H","REV_AT_EPOCH":"130","MEAN_MOTION_DDOT":"0.0000000000000","MEAN_MOTION":"15.60202177","RA_OF_ASC_NODE":"142.5723","INCLINATION":"43.0022","NORAD_CAT_ID":"56293","SEMIMAJOR_AXIS":"6765.210","GP_ID":"230933358","MEAN_MOTION_DOT":"-0.01210563","REF_FRAME":"TEME","FILE":"3896517","OBJECT_TYPE":"PAYLOAD","CLASSIFICATION_TYPE":"U","MEAN_ANOMALY":"109.5161","LAUNCH_DATE":"2023-04-19","CENTER_NAME":"EARTH","MEAN_ELEMENT_THEORY":"SGP4","APOAPSIS":"388.225","OBJECT_NAME":"STARLINK-30090","TLE_LINE2":"2 56293  43.0022 142.5723 0001700 281.8523 109.5161 15.60202177  1307","TIME_SYSTEM":"UTC","SITE":"AFETR","ECCENTRICITY":"0.00017000","PERIOD":"92.296","PERIAPSIS":"385.924","ELEMENT_SET_NO":"999","COUNTRY_CODE":"US","EPOCH":"2023-04-29T14:00:01.999872","DECAY_DATE":null},{"EPOCH":"2023-04-29T22:00:00.999936","DECAY_DATE":null,"ELEMENT_SET_NO":"999","COUNTRY_CODE":"US","ECCENTRICITY":"0.00016510","PERIOD":"92.185","SITE":"AFETR","PERIAPSIS":"380.558","CENTER_NAME":"EARTH","LAUNCH_DATE":"2023-04-19","OBJECT_NAME":"STARLINK-30049","APOAPSIS":"382.790","TLE_LINE2":"2 56294  43.0022 140.5638 0001651 267.8686 209.5308 15.62072153  2115","TIME_SYSTEM":"UTC","MEAN_ELEMENT_THEORY":"SGP4","MEAN_MOTION_DOT":"-0.00613291","REF_FRAME":"TEME","FILE":"3896784","OBJECT_TYPE":"PAYLOAD","SEMIMAJOR_AXIS":"6759.809","GP_ID":"230939889","CLASSIFICATION_TYPE":"U","MEAN_ANOMALY":"209.5308","MEAN_MOTION":"15.62072153","RA_OF_ASC_NODE":"140.5638","REV_AT_EPOCH":"211","MEAN_MOTION_DDOT":"0.0000000000000","INCLINATION":"43.0022","NORAD_CAT_ID":"56294","ARG_OF_PERICENTER":"267.8686","OBJECT_ID":"2023-056J","EPHEMERIS_TYPE":"0","BSTAR":"-0.00734100000000","RCS_SIZE":"MEDIUM","TLE_LINE1":"1 56294U 23056J   23119.91667824 -.00613291  00000-0 -73410-2 0  9992"}];
